ONEWEB-0555             
1 56057U 23043M   25310.61215113 -.00000012  00000+0 -64143-4 0  9992
2 56057  87.9001 273.0985 0001689  64.9876 295.1430 13.16596160129675
ONEWEB-0557             
1 56058U 23043N   25310.62641206 -.00000113  00000+0 -32949-3 0  9990
2 56058  87.8999 273.1094 0000631  67.5960 292.5238 13.16591871129673
ONEWEB-0558             
1 56059U 23043P   25310.66935924  .00000085  00000+0  17391-3 0  9998
2 56059  87.9168 288.3757 0002448  86.8164 273.3250 13.21829750128840
ONEWEB-0559             
1 56060U 23043Q   25310.65784573  .00000140  00000+0  30684-3 0  9993
2 56060  87.9170 288.3709 0002111  92.9020 267.2356 13.21827954128852
ONEWEB-0566             
1 56061U 23043R   25310.65127647  .00000026  00000+0  32504-4 0  9994
2 56061  87.9177 288.3694 0002270  89.6944 270.4450 13.21827318128830
ONEWEB-0568             
1 56062U 23043S   25310.64382983  .00000021  00000+0  20397-4 0  9992
2 56062  87.9003 273.0913 0001783  73.7790 286.3537 13.16595255129698
ONEWEB-0574             
1 56063U 23043T   25310.64467249  .00000006  00000+0 -17714-4 0  9995
2 56063  87.9172 288.3598 0001729  89.2518 270.8814 13.21827238128874
ONEWEB-0575             
1 56064U 23043U   25310.63748516 -.00000088  00000+0 -26411-3 0  9998
2 56064  87.8997 273.0944 0001459  80.1513 279.9782 13.16594917129683
ONEWEB-0576             
1 56065U 23043V   25310.46651734 -.00000011  00000+0 -61795-4 0  9996
2 56065  87.9006 273.1276 0001754  77.5582 282.5745 13.16594567129656
ONEWEB-0577             
1 56066U 23043W   25310.62484229 -.00000062  00000+0 -19511-3 0  9992
2 56066  87.9002 273.0958 0001193  83.2039 276.9228 13.16594401129703
ONEWEB-0578             
1 56067U 23043X   25310.63152391  .00000014  00000+0  31622-5 0  9990
2 56067  87.9175 288.3714 0001823  78.0341 282.0998 13.21824892128833
ONEWEB-0579             
1 56068U 23043Y   25310.47025674  .00000054  00000+0  98144-4 0  9991
2 56068  87.9175 288.3909 0002010  92.1568 267.9796 13.21824120128828
ONEWEB-0581             
1 56069U 23043Z   25310.63116313 -.00000016  00000+0 -75311-4 0  9992
2 56069  87.8999 273.1093 0001504  91.2632 268.8671 13.16595446129673
ONEWEB-0609             
1 56070U 23043AA  25310.41183032 -.00000082  00000+0 -25287-3 0  9991
2 56070  87.8962 303.6743 0001915  88.8608 271.2741 13.15550630127148
ONEWEB-0613             
1 56071U 23043AB  25310.48314542  .00000056  00000+0  11372-3 0  9990
2 56071  87.8954 303.6731 0002080  94.2545 265.8823 13.15547136127150
ONEWEB-0630             
1 56072U 23043AC  25310.47839847 -.00000096  00000+0 -29002-3 0  9995
2 56072  87.8953 303.6461 0002107  95.1696 264.9675 13.15549741127145
ONEWEB-0632             
1 56073U 23043AD  25310.47364065 -.00000060  00000+0 -19406-3 0  9999
2 56073  87.8950 303.6660 0001711  94.3604 265.7721 13.15550284127149
ONEWEB-0633             
1 56074U 23043AE  25310.46730059 -.00000083  00000+0 -25562-3 0  9994
2 56074  87.8955 303.6307 0002306  91.8500 268.2894 13.15549722127123
ONEWEB-0634             
1 56075U 23043AF  25310.45304529  .00000051  00000+0  10106-3 0  9994
2 56075  87.8963 303.6804 0002023  79.0679 281.0679 13.15549668127118
ONEWEB-0635             
1 56076U 23043AG  25310.44829265  .00000069  00000+0  15024-3 0  9996
2 56076  87.8954 303.6376 0001610  94.8193 265.3121 13.15548191127140
ONEWEB-0636             
1 56077U 23043AH  25310.44037860  .00000230  00000+0  57574-3 0  9995
2 56077  87.8955 303.6571 0001654  92.9590 267.1730 13.15548403127127
ONEWEB-0637             
1 56078U 23043AJ  25310.43403903  .00000296  00000+0  75119-3 0  9997
2 56078  87.8959 303.6746 0001669  88.9717 271.1605 13.15548343127149
ONEWEB-0647             
1 56079U 23043AK  25310.42926450  .00000169  00000+0  41468-3 0  9993
2 56079  87.8958 303.6879 0001836  94.6559 265.4781 13.15547623127130
ONEWEB-0651             
1 56080U 23043AL  25310.34846970 -.00000019  00000+0 -84388-4 0  9999
2 56080  87.8959 303.6967 0001571  90.2814 269.8496 13.15547267128320
ONEWEB-0718             
1 56081U 23043AM  25310.41976426  .00000113  00000+0  26584-3 0  9994
2 56081  87.8958 303.6636 0002165  78.1840 281.9533 13.15550273127144
ONEWEB-0561             
1 56710U 23068A   25310.47282279 -.00000007  00000+0 -50142-4 0  9994
2 56710  87.9181 318.8705 0001663 106.8383 253.2933 13.20771760120107
ONEWEB-0668             
1 56711U 23068B   25310.46303722  .00000039  00000+0  67376-4 0  9991
2 56711  87.9012 273.1154 0002034  68.2349 291.8999 13.18150175122478
ONEWEB-0676             
1 56712U 23068C   25310.61373822 -.00000007  00000+0 -51738-4 0  9999
2 56712  87.9001 273.1075 0001791  85.9479 274.1856 13.16591965122412
ONEWEB-0677             
1 56713U 23068D   25310.46176713  .00000004  00000+0 -21318-4 0  9990
2 56713  87.9191 318.8521 0001706  91.0689 269.0640 13.20772444120402
ONEWEB-0678             
1 56714U 23068E   25310.46413411 -.00000069  00000+0 -21636-3 0  9994
2 56714  87.8960 303.6285 0002060  97.6316 262.5048 13.15550233120008
ONEWEB-0679             
1 56715U 23068F   25310.42071400  .00002113  00000+0  54914-2 0  9993
2 56715  87.9102 273.1176 0002757  56.5349 303.6045 13.16604113122410
ONEWEB-0680             
1 56716U 23068G   25310.47352668  .00000015  00000+0  52898-5 0  9998
2 56716  87.9175 288.3887 0001805  66.1274 294.0049 13.21825526121678
ONEWEB-0681             
1 56717U 23068H   25310.45297863 -.00000058  00000+0 -17179-3 0  9992
2 56717  87.9170 288.4104 0001047 114.5029 245.6214 13.21827462121667
ONEWEB-0682             
1 56718U 23068J   25310.41423345 -.00000019  00000+0 -83663-4 0  9994
2 56718  87.8955 303.6550 0001725  74.1349 285.9972 13.15549188120163
ONEWEB-0683             
1 56719U 23068K   25310.43562247  .00000128  00000+0  30557-3 0  9994
2 56719  87.8964 303.6325 0001882  85.7305 274.4040 13.15549315120136
ONEWEB-0684             
1 56720U 23068L   25310.44355012  .00000229  00000+0  57541-3 0  9991
2 56720  87.8957 303.6259 0003191  99.3327 260.8164 13.15548955119960
ONEWEB-0686             
1 56721U 23068M   25310.64838302  .00009757  00000+0  25422-1 0  9998
2 56721  87.8981 273.1188 0002297  72.1444 287.9937 13.16701037122432
ONEWEB-0694             
1 56722U 23068N   25310.61532547 -.00000008  00000+0 -53853-4 0  9992
2 56722  87.9011 273.0647 0001925  67.8816 292.2519 13.16593383122481
ONEWEB-0696             
1 56723U 23068P   25310.47681400 -.00000061  00000+0 -19497-3 0  9994
2 56723  87.8948 303.6746 0002042  98.3943 261.7419 13.15550326120084
ONEWEB-0703             
1 56724U 23068Q   25310.48632027 -.00000029  00000+0 -11110-3 0  9995
2 56724  87.8951 303.6547 0002228 117.9589 242.1767 13.15548356119973
ONEWEB-0721             
1 56725U 23068R   25310.54913903  .00000034  00000+0  47858-4 0  9991
2 56725  86.6810 156.5261 0001464  82.3833 277.7466 13.22449640128515
ONEWEB-0015             
1 61594U 24188A   25310.75178211 -.00000077  00000+0 -25390-3 0  9998
2 61594  87.8855  65.3958 0000992 104.5267 255.5971 13.11419111 55309
ONEWEB-0687             
1 61595U 24188B   25310.50998279  .00000066  00000+0  13720-3 0  9996
2 61595  87.9122  50.1821 0001390  82.8482 277.2808 13.17651832 56573
ONEWEB-0688             
1 61596U 24188C   25310.31086468  .00000036  00000+0  59037-4 0  9993
2 61596  87.9120  50.2221 0000436 117.6921 242.4255 13.17651349 56542
ONEWEB-0689             
1 61597U 24188D   25310.70938808  .00000325  00000+0  88127-3 0  9993
2 61597  87.8831  65.3444 0001570  88.6255 271.5053 13.11417402 55296
ONEWEB-0690             
1 61598U 24188E   25310.56697848 -.00000135  00000+0 -41660-3 0  9996
2 61598  87.8869  65.3750 0002038 120.8145 239.3184 13.11414825 55456
ONEWEB-0691             
1 61599U 24188F   25310.71448238  .00000112  00000+0  28038-3 0  9998
2 61599  87.8800  65.2632 0001188 106.8476 253.2782 13.11413710 55323
ONEWEB-0692             
1 61600U 24188G   25310.58224272 -.00000476  00000+0 -13799-2 0  9998
2 61600  87.8845  65.4241 0002465  88.6477 271.4934 13.11418079 55290
ONEWEB-0693             
1 61601U 24188H   25310.70235883  .00000031  00000+0  47935-4 0  9999
2 61601  87.9116  50.1627 0001937 127.4247 232.7061 13.17650125 56582
ONEWEB-0695             
1 61602U 24188J   25310.55849516  .00000167  00000+0  43567-3 0  9993
2 61602  87.8849  65.4175 0001846  83.8570 276.2768 13.11416507 55286
ONEWEB-0697             
1 61603U 24188K   25310.74328881 -.00000403  00000+0 -11716-2 0  9997
2 61603  87.8849  65.3713 0002331  90.8408 269.2987 13.11415845 55292
ONEWEB-0698             
1 61604U 24188L   25310.72125882 -.00000183  00000+0 -55272-3 0  9993
2 61604  87.8849  65.3905 0002717 106.9481 253.1945 13.11413773 55311
ONEWEB-0699             
1 61605U 24188M   25310.63339730 -.00000449  00000+0 -13225-2 0  9999
2 61605  87.8798  80.6219 0002215  92.1366 268.0015 13.10376071 54167
ONEWEB-0700             
1 61606U 24188N   25310.63505505 -.00005162  00000+0 -14828-1 0  9991
2 61606  87.8805  80.5048 0002488  72.8299 287.3100 13.10399241 54150
ONEWEB-0701             
1 61607U 24188P   25310.65167454  .00000453  00000+0  12627-2 0  9993
2 61607  87.8796  80.6202 0002369  89.5368 270.6031 13.10376892 54169
ONEWEB-0702             
1 61608U 24188Q   25310.76705450  .00000430  00000+0  11769-2 0  9991
2 61608  87.8799  65.2814 0002369  83.7375 276.4022 13.11416630 55335
ONEWEB-0704             
1 61609U 24188R   25310.64003963 -.00000159  00000+0 -49273-3 0  9991
2 61609  87.8811  80.5829 0002343  79.0918 281.0472 13.10377568 54144
ONEWEB-0705             
1 61610U 24188S   25310.64501398  .00000122  00000+0  31460-3 0  9995
2 61610  87.8800  80.6083 0001819  57.0331 303.0971 13.10378733 46313
ONEWEB-0706             
1 61611U 24188T   25310.63007676 -.00000548  00000+0 -16058-2 0  9994
2 61611  87.8788  80.6351 0001876  78.8615 281.2723 13.10375016 54239
